{"type": "FeatureCollection", "features": [ {"type": "Feature", "properties": {"norad_id": 44542, "name": "BEIDOU-3 M24 (C46)", "group": "gnss", "lat": 32.388193541913935, "lon": -18.364545142391904, "alt_km": 21534.64749626723, "timestamp": "2025-12-22T18:58:53.677557+00:00", "meta": {"OBJECT_NAME": "BEIDOU-3 M24 (C46)", "OBJECT_ID": "2019-061A", "EPOCH": "2025-12-20T23:21:37.865088", "MEAN_MOTION": 1.86229471, "ECCENTRICITY": 0.0009592, "INCLINATION": 54.4004, "RA_OF_ASC_NODE": 188.7381, "ARG_OF_PERICENTER": 25.7188, "MEAN_ANOMALY": 334.3821, "EPHEMERIS_TYPE": 0, "CLASSIFICATION_TYPE": "U", "NORAD_CAT_ID": 44542, "ELEMENT_SET_NO": 999, "REV_AT_EPOCH": 4247, "BSTAR": 0, "MEAN_MOTION_DOT": 9.6e-07, "MEAN_MOTION_DDOT": 0}, "tle": {"line1": "1 44542U 19061A   25354.97335492  .00000096  00000+0  00000+0 0  9990", "line2": "2 44542  54.4004 188.7381 0009592  25.7188 334.3821  1.86229471 42471"}}, "geometry": {"type": "Point", "coordinates": [-18.364545142391904, 32.388193541913935]}}, {"type": "Feature", "properties": {"norad_id": 44543, "name": "BEIDOU-3 M23 (C45)", "group": "gnss", "lat": 39.41121667857438, "lon": -135.26047411477325, "alt_km": 21508.196584261605, "timestamp": "2025-12-22T18:58:53.677593+00:00", "meta": {"OBJECT_NAME": "BEIDOU-3 M23 (C45)", "OBJECT_ID": "2019-061B", "EPOCH": "2025-12-22T04:16:38.631360", "MEAN_MOTION": 1.86227761, "ECCENTRICITY": 0.00060882, "INCLINATION": 54.3995, "RA_OF_ASC_NODE": 188.6659, "ARG_OF_PERICENTER": 26.1092, "MEAN_ANOMALY": 334.4978, "EPHEMERIS_TYPE": 0, "CLASSIFICATION_TYPE": "U", "NORAD_CAT_ID": 44543, "ELEMENT_SET_NO": 999, "REV_AT_EPOCH": 4250, "BSTAR": 0, "MEAN_MOTION_DOT": 9.4e-07, "MEAN_MOTION_DDOT": 0}, "tle": {"line1": "1 44543U 19061B   25356.17822490  .00000094  00000+0  00000+0 0  9992", "line2": "2 44543  54.3995 188.6659 0006088  26.1092 334.4978  1.86227761 42501"}}, "geometry": {"type": "Point", "coordinates": [-135.26047411477325, 39.41121667857438]}}, {"type": "Feature", "properties": {"norad_id": 44624, "name": "EUTELSAT 5 WEST B (EGNOS/PRN 121)", "group": "gnss", "lat": 0.0393878853329868, "lon": 11.344456488815004, "alt_km": 35788.576473421286, "timestamp": "2025-12-22T18:58:53.677615+00:00", "meta": {"OBJECT_NAME": "EUTELSAT 5 WEST B (EGNOS/PRN 121)", "OBJECT_ID": "2019-067A", "EPOCH": "2025-12-22T06:17:32.611200", "MEAN_MOTION": 1.00271351, "ECCENTRICITY": 0.00030366, "INCLINATION": 0.0656, "RA_OF_ASC_NODE": 338.4706, "ARG_OF_PERICENTER": 292.1222, "MEAN_ANOMALY": 269.8665, "EPHEMERIS_TYPE": 0, "CLASSIFICATION_TYPE": "U", "NORAD_CAT_ID": 44624, "ELEMENT_SET_NO": 999, "REV_AT_EPOCH": 2266, "BSTAR": 0, "MEAN_MOTION_DOT": -2e-07, "MEAN_MOTION_DDOT": 0}, "tle": {"line1": "1 44624U 19067A   25356.26218300 -.00000020  00000+0  00000+0 0  9997", "line2": "2 44624   0.0656 338.4706 0003036 292.1222 269.8665  1.00271351 22660"}}, "geometry": {"type": "Point", "coordinates": [11.344456488815004, 0.0393878853329868]}}, {"type": "Feature", "properties": {"norad_id": 44793, "name": "BEIDOU-3 M22 (C44)", "group": "gnss", "lat": -47.679151579796354, "lon": 178.63072365076854, "alt_km": 21545.877027382256, "timestamp": "2025-12-22T18:58:53.677641+00:00", "meta": {"OBJECT_NAME": "BEIDOU-3 M22 (C44)", "OBJECT_ID": "2019-078A", "EPOCH": "2025-12-21T21:17:38.113152", "MEAN_MOTION": 1.86232212, "ECCENTRICITY": 0.0006079, "INCLINATION": 54.0999, "RA_OF_ASC_NODE": 306.0653, "ARG_OF_PERICENTER": 23.9772, "MEAN_ANOMALY": 336.0508, "EPHEMERIS_TYPE": 0, "CLASSIFICATION_TYPE": "U", "NORAD_CAT_ID": 44793, "ELEMENT_SET_NO": 999, "REV_AT_EPOCH": 4134, "BSTAR": 0, "MEAN_MOTION_DOT": -5.9e-07, "MEAN_MOTION_DDOT": 0}, "tle": {"line1": "1 44793U 19078A   25355.88724668 -.00000059  00000+0  00000+0 0  9994", "line2": "2 44793  54.0999 306.0653 0006079  23.9772 336.0508  1.86232212 41344"}}, "geometry": {"type": "Point", "coordinates": [178.63072365076854, -47.679151579796354]}}, {"type": "Feature", "properties": {"norad_id": 44794, "name": "BEIDOU-3 M21 (C43)", "group": "gnss", "lat": 21.194021687521637, "lon": 109.66773941081243, "alt_km": 21535.086439305403, "timestamp": "2025-12-22T18:58:53.677659+00:00", "meta": {"OBJECT_NAME": "BEIDOU-3 M21 (C43)", "OBJECT_ID": "2019-078B", "EPOCH": "2025-12-22T00:36:11.320992", "MEAN_MOTION": 1.86227905, "ECCENTRICITY": 0.00042975, "INCLINATION": 54.0732, "RA_OF_ASC_NODE": 306.0255, "ARG_OF_PERICENTER": 12.7987, "MEAN_ANOMALY": 347.2125, "EPHEMERIS_TYPE": 0, "CLASSIFICATION_TYPE": "U", "NORAD_CAT_ID": 44794, "ELEMENT_SET_NO": 999, "REV_AT_EPOCH": 4135, "BSTAR": 0, "MEAN_MOTION_DOT": -5.8e-07, "MEAN_MOTION_DDOT": 0}, "tle": {"line1": "1 44794U 19078B   25356.02513103 -.00000058  00000+0  00000+0 0  9991", "line2": "2 44794  54.0732 306.0255 0004297  12.7987 347.2125  1.86227905 41355"}}, "geometry": {"type": "Point", "coordinates": [109.66773941081243, 21.194021687521637]}}, {"type": "Feature", "properties": {"norad_id": 44850, "name": "COSMOS 2544 (759)", "group": "gnss", "lat": 21.597965583459818, "lon": -110.76393369345556, "alt_km": 19130.15052929873, "timestamp": "2025-12-22T18:58:53.677677+00:00", "meta": {"OBJECT_NAME": "COSMOS 2544 (759)", "OBJECT_ID": "2019-088A", "EPOCH": "2025-12-22T02:49:35.423040", "MEAN_MOTION": 2.13102165, "ECCENTRICITY": 0.00143115, "INCLINATION": 65.4645, "RA_OF_ASC_NODE": 79.6449, "ARG_OF_PERICENTER": 250.2994, "MEAN_ANOMALY": 109.5877, "EPHEMERIS_TYPE": 0, "CLASSIFICATION_TYPE": "U", "NORAD_CAT_ID": 44850, "ELEMENT_SET_NO": 999, "REV_AT_EPOCH": 4694, "BSTAR": 0, "MEAN_MOTION_DOT": -3e-08, "MEAN_MOTION_DDOT": 0}, "tle": {"line1": "1 44850U 19088A   25356.11777110 -.00000003  00000+0  00000+0 0  9995", "line2": "2 44850  65.4645  79.6449 0014311 250.2994 109.5877  2.13102165 46944"}}, "geometry": {"type": "Point", "coordinates": [-110.76393369345556, 21.597965583459818]}}, {"type": "Feature", "properties": {"norad_id": 44864, "name": "BEIDOU-3 M19 (C41)", "group": "gnss", "lat": -8.81634811416003, "lon": 62.73762461489806, "alt_km": 21507.258023524624, "timestamp": "2025-12-22T18:58:53.677698+00:00", "meta": {"OBJECT_NAME": "BEIDOU-3 M19 (C41)", "OBJECT_ID": "2019-090A", "EPOCH": "2025-12-22T06:47:40.337664", "MEAN_MOTION": 1.8623164, "ECCENTRICITY": 0.00183372, "INCLINATION": 56.4008, "RA_OF_ASC_NODE": 68.6452, "ARG_OF_PERICENTER": 285.1073, "MEAN_ANOMALY": 83.7045, "EPHEMERIS_TYPE": 0, "CLASSIFICATION_TYPE": "U", "NORAD_CAT_ID": 44864, "ELEMENT_SET_NO": 999, "REV_AT_EPOCH": 4094, "BSTAR": 0, "MEAN_MOTION_DOT": -2.9e-07, "MEAN_MOTION_DDOT": 0}, "tle": {"line1": "1 44864U 19090A   25356.28310576 -.00000029  00000+0  00000+0 0  9998", "line2": "2 44864  56.4008  68.6452 0018337 285.1073  83.7045  1.86231640 40945"}}, "geometry": {"type": "Point", "coordinates": [62.73762461489806, -8.81634811416003]}}, {"type": "Feature", "properties": {"norad_id": 44865, "name": "BEIDOU-3 M20 (C42)", "group": "gnss", "lat": 54.855415672102716, "lon": 139.23856388537237, "alt_km": 21555.497499739547, "timestamp": "2025-12-22T18:58:53.677716+00:00", "meta": {"OBJECT_NAME": "BEIDOU-3 M20 (C42)", "OBJECT_ID": "2019-090B", "EPOCH": "2025-12-22T03:27:20.583072", "MEAN_MOTION": 1.86231562, "ECCENTRICITY": 0.00154748, "INCLINATION": 56.4023, "RA_OF_ASC_NODE": 68.6841, "ARG_OF_PERICENTER": 297.2268, "MEAN_ANOMALY": 67.9266, "EPHEMERIS_TYPE": 0, "CLASSIFICATION_TYPE": "U", "NORAD_CAT_ID": 44865, "ELEMENT_SET_NO": 999, "REV_AT_EPOCH": 4092, "BSTAR": 0, "MEAN_MOTION_DOT": -3e-07, "MEAN_MOTION_DDOT": 0}, "tle": {"line1": "1 44865U 19090B   25356.14398823 -.00000030  00000+0  00000+0 0  9997", "line2": "2 44865  56.4023  68.6841 0015474 297.2268  67.9266  1.86231562 40924"}}, "geometry": {"type": "Point", "coordinates": [139.23856388537237, 54.855415672102716]}}, {"type": "Feature", "properties": {"norad_id": 45344, "name": "BEIDOU-3 G2 (C60)", "group": "gnss", "lat": 2.0159723155534874, "lon": 96.32204979015704, "alt_km": 35794.32925117399, "timestamp": "2025-12-22T18:58:53.677737+00:00", "meta": {"OBJECT_NAME": "BEIDOU-3 G2 (C60)", "OBJECT_ID": "2020-017A", "EPOCH": "2025-12-19T13:38:45.370752", "MEAN_MOTION": 1.00273166, "ECCENTRICITY": 0.0002079, "INCLINATION": 2.5096, "RA_OF_ASC_NODE": 44.0024, "ARG_OF_PERICENTER": 233.0917, "MEAN_ANOMALY": 96.0359, "EPHEMERIS_TYPE": 0, "CLASSIFICATION_TYPE": "U", "NORAD_CAT_ID": 45344, "ELEMENT_SET_NO": 999, "REV_AT_EPOCH": 2145, "BSTAR": 0, "MEAN_MOTION_DOT": -1.18e-06, "MEAN_MOTION_DDOT": 0}, "tle": {"line1": "1 45344U 20017A   25353.56858068 -.00000118  00000+0  00000+0 0  9993", "line2": "2 45344   2.5096  44.0024 0002079 233.0917  96.0359  1.00273166 21451"}}, "geometry": {"type": "Point", "coordinates": [96.32204979015704, 2.0159723155534874]}}, {"type": "Feature", "properties": {"norad_id": 45358, "name": "COSMOS 2545 (760)", "group": "gnss", "lat": 5.637319242140741, "lon": -38.69757704724911, "alt_km": 19142.471506041944, "timestamp": "2025-12-22T18:58:53.677755+00:00", "meta": {"OBJECT_NAME": "COSMOS 2545 (760)", "OBJECT_ID": "2020-018A", "EPOCH": "2025-12-20T21:44:12.708096", "MEAN_MOTION": 2.13102664, "ECCENTRICITY": 0.00114269, "INCLINATION": 64.4648, "RA_OF_ASC_NODE": 318.6832, "ARG_OF_PERICENTER": 250.0027, "MEAN_ANOMALY": 109.8672, "EPHEMERIS_TYPE": 0, "CLASSIFICATION_TYPE": "U", "NORAD_CAT_ID": 45358, "ELEMENT_SET_NO": 999, "REV_AT_EPOCH": 4486, "BSTAR": 0, "MEAN_MOTION_DOT": -5e-07, "MEAN_MOTION_DDOT": 0}, "tle": {"line1": "1 45358U 20018A   25354.90570264 -.00000050  00000+0  00000+0 0  9992", "line2": "2 45358  64.4648 318.6832 0011426 250.0027 109.8672  2.13102664 44860"}}, "geometry": {"type": "Point", "coordinates": [-38.69757704724911, 5.637319242140741]}}]}